     2.100          NAVIGATION                              RINEX VERSION / TYPE
fic2rin                                 09/11/2017 00:05:21 PGM / RUN BY / DATE
                                                            END OF HEADER
 8 17  9 10  4  0  0.0 -.729653984308D-04 -.136424205266D-11  .000000000000D+00
     .230000000000D+02 -.125000000000D+01  .411731435981D-08 -.163291913572D+01
    -.111758708954D-07  .259440275840D-02  .112000852823D-04  .515368938446D+04
     .144000000000D+05 -.149011611938D-07  .825308411877D+00  .447034835815D-07
     .967547544662D+00  .168812500000D+03 -.623864039379D+00 -.786854204207D-08
     .211080220910D-09  .100000000000D+01  .196600000000D+04  .000000000000D+00
     .240000000000D+01  .000000000000D+00  .558793544769D-08  .230000000000D+02
     .720600000000D+04  .400000000000D+01
10 17  9 10  4  0  0.0  .607478432357D-04  .989075488178D-11  .000000000000D+00
     .200000000000D+02 -.598437500000D+02  .467448042516D-08 -.101396530041D+00
    -.306963920593D-05  .274935411289D-02  .827200710773D-05  .515366969109D+04
     .144000000000D+05  .726431608200D-07  .292817997712D+01  .745058059692D-08
     .960699620744D+00  .220812500000D+03 -.284049527145D+01 -.822177104119D-08
    -.333942481473D-09  .100000000000D+01  .196600000000D+04  .000000000000D+00
     .240000000000D+01  .000000000000D+00  .186264514923D-08  .200000000000D+02
     .720600000000D+04  .400000000000D+01
11 17  9 10  4  0  0.0 -.714662019163D-03 -.238742359215D-11  .000000000000D+00
     .330000000000D+02  .396562500000D+02  .597346310443D-08  .133874900130D+01
     .174529850483D-05  .170927372528D-01  .675395131111D-05  .515372694397D+04
     .144000000000D+05 -.223517417908D-07  .147942632128D+01 -.474974513054D-06
     .901836006050D+00  .218125000000D+03  .169054252650D+01 -.897073080980D-08
     .426446334630D-09  .100000000000D+01  .196600000000D+04  .000000000000D+00
     .240000000000D+01  .000000000000D+00 -.121071934700D-07  .330000000000D+02
     .720600000000D+04  .400000000000D+01
12 17  9 10  4  0  0.0  .373239163309D-03 -.125055521494D-11  .000000000000D+00
     .560000000000D+02 -.782812500000D+02  .403873965829D-08  .701399272506D+00
    -.405870378017D-05  .653852091637D-02  .802986323833D-05  .515372382545D+04
     .144000000000D+05 -.409781932831D-07 -.150806029334D+00  .104308128357D-06
     .988867948902D+00  .239062500000D+03  .913309921241D+00 -.803747765035D-08
    -.576095425258D-09  .100000000000D+01  .196600000000D+04  .000000000000D+00
     .240000000000D+01  .000000000000D+00 -.125728547573D-07  .560000000000D+02
     .720600000000D+04  .400000000000D+01
13 17  9 10  4  0  0.0 -.911327078938D-04 -.568434188608D-12  .000000000000D+00
     .300000000000D+02  .780625000000D+02  .421374694805D-08  .252168083077D+01
     .386312603951D-05  .349765236024D-02  .116769224405D-04  .515366217041D+04
     .144000000000D+05  .372529029846D-07 -.218843716240D+01  .000000000000D+00
     .969208348744D+00  .159500000000D+03  .175787211688D+01 -.780675375406D-08
     .248581783000D-09  .100000000000D+01  .196600000000D+04  .000000000000D+00
     .240000000000D+01  .000000000000D+00 -.111758708954D-07  .300000000000D+02
     .720600000000D+04  .400000000000D+01
15 17  9 10  4  0  0.0 -.355639960617D-03 -.341060513165D-12  .000000000000D+00
     .660000000000D+02  .602812500000D+02  .500770859116D-08 -.299003425427D+01
     .292249023914D-05  .954609829932D-02  .128373503685D-04  .515361963081D+04
     .144000000000D+05 -.484287738800D-07 -.238049860217D+01 -.158324837685D-06
     .928993422705D+00  .116937500000D+03  .600451132708D+00 -.810283751571D-08
     .134291308058D-09  .100000000000D+01  .196600000000D+04  .000000000000D+00
     .240000000000D+01  .000000000000D+00 -.107102096081D-07  .660000000000D+02
     .720600000000D+04  .400000000000D+01
17 17  9 10  4  0  0.0 -.158124603331D-03  .238742359215D-11  .000000000000D+00
     .500000000000D+02  .236250000000D+02  .382230207137D-08 -.214320670950D+01
     .116229057312D-05  .118069811724D-01  .113174319267D-04  .515368227959D+04
     .144000000000D+05  .217929482460D-06  .884297185064D+00 -.949949026108D-07
     .980798656624D+00  .173781250000D+03 -.184476687751D+01 -.747638284993D-08
     .216794744657D-09  .100000000000D+01  .196600000000D+04  .000000000000D+00
     .240000000000D+01  .000000000000D+00 -.111758708954D-07  .500000000000D+02
     .720600000000D+04  .400000000000D+01
18 17  9 10  4  0  0.0  .629214104265D-03  .909494701773D-12  .000000000000D+00
     .680000000000D+02 -.565000000000D+02  .562380568265D-08 -.673081179573D+00
    -.279024243355D-05  .181345395977D-01  .799633562565D-05  .515362537575D+04
     .144000000000D+05 -.162050127983D-06  .288227838715D+01  .242143869400D-06
     .926313696181D+00  .213250000000D+03 -.178350547425D+01 -.894358682200D-08
    -.266796827444D-09  .100000000000D+01  .196600000000D+04  .000000000000D+00
     .240000000000D+01  .000000000000D+00 -.111758708954D-07  .680000000000D+02
     .720600000000D+04  .400000000000D+01
19 17  9 10  4  0  0.0 -.486966222525D-03  .181898940355D-11  .000000000000D+00
     .180000000000D+02  .207500000000D+02  .391694887093D-08  .846572470364D+00
     .120885670185D-05  .100762253860D-01  .114664435387D-04  .515367833710D+04
     .144000000000D+05 -.208616256714D-06  .931879645968D+00 -.800937414169D-07
     .978097523219D+00  .174875000000D+03  .106498420562D+01 -.781639701288D-08
     .123219418298D-09  .100000000000D+01  .196600000000D+04  .000000000000D+00
     .240000000000D+01  .000000000000D+00 -.153668224812D-07  .180000000000D+02
     .720600000000D+04  .400000000000D+01
21 17  9 10  4  0  0.0 -.480540562421D-03  .306954461848D-11  .000000000000D+00
     .600000000000D+02  .225312500000D+02  .535629453974D-08  .224757019541D+00
     .127963721752D-05  .239686890272D-01  .570341944695D-05  .515360213089D+04
     .144000000000D+05 -.430271029472D-06  .184221513145D+01 -.931322574615D-07
     .940588467514D+00  .264562500000D+03 -.164246198734D+01 -.899858911307D-08
     .260010830495D-09  .100000000000D+01  .196600000000D+04  .000000000000D+00
     .240000000000D+01  .000000000000D+00 -.977888703346D-08  .600000000000D+02
     .720600000000D+04  .400000000000D+01
22 17  9 10  4  0  0.0 -.116814859211D-03 -.126192389871D-10  .000000000000D+00
     .880000000000D+02 -.654062500000D+02  .545094133930D-08 -.278092205225D+01
    -.361166894436D-05  .729302375112D-02  .713206827641D-05  .515373338699D+04
     .144000000000D+05  .122934579849D-06  .288194182383D+01  .186264514923D-08
     .924396811215D+00  .218687500000D+03 -.168080462693D+01 -.848428197583D-08
    -.265725354242D-09  .100000000000D+01  .196600000000D+04  .000000000000D+00
     .240000000000D+01  .000000000000D+00 -.176951289177D-07  .880000000000D+02
     .720600000000D+04  .400000000000D+01
23 17  9 10  4  0  0.0 -.217191409320D-03 -.341060513165D-12  .000000000000D+00
     .410000000000D+02  .473437500000D+02  .475484091535D-08  .275992467934D+01
     .245682895184D-05  .118830902502D-01  .117048621178D-04  .515369239807D+04
     .144000000000D+05 -.316649675369D-07 -.231543776805D+01 -.171363353729D-06
     .944198722581D+00  .147468750000D+03 -.242435993198D+01 -.792747306822D-08
     .198222542479D-09  .100000000000D+01  .196600000000D+04  .000000000000D+00
     .240000000000D+01  .000000000000D+00 -.204890966415D-07  .410000000000D+02
     .720600000000D+04  .400000000000D+01
24 17  9 10  4  0  0.0 -.395365059376D-04 -.227373675443D-12  .000000000000D+00
     .440000000000D+02  .689375000000D+02  .542558314017D-08  .222929403152D+01
     .356882810593D-05  .587422214448D-02  .378116965294D-05  .515367441940D+04
     .144000000000D+05 -.165775418282D-06 -.129271123121D+01 -.353902578354D-07
     .943907222987D+00  .297093750000D+03  .469021151974D+00 -.870071956275D-08
     .263582407837D-09  .100000000000D+01  .196600000000D+04  .000000000000D+00
     .240000000000D+01  .000000000000D+00  .279396772385D-08  .440000000000D+02
     .720600000000D+04  .400000000000D+01
25 17  9 10  4  0  0.0 -.453624408692D-03 -.636646291241D-11  .000000000000D+00
     .380000000000D+02 -.793437500000D+02  .440875507092D-08  .270651530454D+00
    -.407546758652D-05  .655703269877D-02  .705197453499D-05  .515375827599D+04
     .144000000000D+05  .000000000000D+00 -.207345444633D+00  .111758708954D-06
     .976680071171D+00  .249812500000D+03  .826219401686D+00 -.826141554969D-08
    -.555380276675D-09  .100000000000D+01  .196600000000D+04  .000000000000D+00
     .240000000000D+01  .000000000000D+00  .558793544769D-08  .380000000000D+02
     .720600000000D+04  .400000000000D+01
26 17  9 10  4  0  0.0 -.430199317634D-03  .103455022327D-10  .000000000000D+00
     .480000000000D+02 -.780312500000D+02  .469590988921D-08 -.310691301311D+00
    -.417418777943D-05  .188060186338D-02  .660493969917D-05  .515376458549D+04
     .144000000000D+05  .111758708954D-06 -.224621916130D+00  .931322574615D-08
     .958370277729D+00  .253187500000D+03 -.105977004082D-02 -.832606109958D-08
    -.525379027002D-09  .100000000000D+01  .196600000000D+04  .000000000000D+00
     .240000000000D+01  .000000000000D+00  .745058059692D-08  .480000000000D+02
     .720600000000D+04  .400000000000D+01
27 17  9 10  4  0  0.0  .322841573507D-03  .522959453519D-11  .000000000000D+00
     .270000000000D+02 -.306250000000D+01  .389301930274D-08 -.212887534957D+01
    -.447034835815D-07  .492570118513D-02  .112652778625D-04  .515367312050D+04
     .144000000000D+05 -.316649675369D-07  .831720313061D+00 -.186264514923D-07
     .975686410398D+00  .171281250000D+03  .397357934502D+00 -.767960560068D-08
     .235724104569D-09  .100000000000D+01  .196600000000D+04  .000000000000D+00
     .240000000000D+01  .000000000000D+00  .139698386192D-08  .270000000000D+02
     .720600000000D+04  .400000000000D+01
